NORAD_CAT_ID,OBJECT_NAME,OBJECT_TYPE,EPOCH,MEAN_MOTION,ECCENTRICITY,INCLINATION,RA_OF_ASC_NODE,ARG_OF_PERICENTER,MEAN_ANOMALY,BSTAR,MEAN_MOTION_DOT,MEAN_MOTION_DDOT,TLE_LINE0,TLE_LINE1,TLE_LINE2,SEMIMAJOR_AXIS,PERIOD,APOGEE,PERIGEE,DECAYED
50805.0,STARLINK-3333,PAYLOAD,2024-07-15 16:41:29,15.0883786,0.0001306,53.2187,341.5772,86.7631,273.3511,8.9423e-05,1.135e-05,0.0,0 STARLINK-3333,1 50805U 22001C   24197.69547856  .00001135  00000-0  89423-4 0  9996,2 50805  53.2187 341.5772 0001306  86.7631 273.3511 15.08837860140931,6917.887,95.438,540.655,538.848,0.0
50805.0,STARLINK-3333,PAYLOAD,2024-07-16 13:21:30,15.08835036,0.000121,53.2179,337.711,81.7,278.4129,0.0004137,6.301e-05,0.0,0 STARLINK-3333,1 50805U 22001C   24198.55660168  .00006301  00000-0  41370-3 0  9992,2 50805  53.2179 337.7110 0001210  81.7000 278.4129 15.08835036139790,6917.896,95.438,540.598,538.923,0.0
50805.0,STARLINK-3333,PAYLOAD,2024-07-16 16:32:16,15.08846782,0.000141,53.2187,337.1192,102.8547,257.2603,0.00090458,0.0001414,0.0,0 STARLINK-3333,1 50805U 22001C   24198.68908035  .00014140  00000-0  90458-3 0  9995,2 50805  53.2187 337.1192 0001410 102.8547 257.2603 15.08846782139811,6917.86,95.437,540.7,538.749,0.0
50805.0,STARLINK-3333,PAYLOAD,2024-07-17 13:12:17,15.08842688,0.0001434,53.2181,333.2471,109.0209,251.0939,0.00031027,4.654e-05,0.0,0 STARLINK-3333,1 50805U 22001C   24199.55020085  .00004654  00000-0  31027-3 0  9998,2 50805  53.2181 333.2471 0001434 109.0209 251.0939 15.08842688141214,6917.872,95.437,540.729,538.745,0.0
50805.0,STARLINK-3333,PAYLOAD,2024-07-17 14:47:40,15.08838259,0.0001257,53.2179,332.951,103.7419,256.3713,0.00018355,2.634e-05,0.0,0 STARLINK-3333,1 50805U 22001C   24199.61644168  .00002634  00000-0  18355-3 0  9994,2 50805  53.2179 332.9510 0001257 103.7419 256.3713 15.08838259139953,6917.886,95.438,540.62,538.881,0.0
50805.0,STARLINK-3333,PAYLOAD,2024-07-17 16:23:03,15.08839747,0.0001227,53.218,332.6539,88.2629,271.8503,0.00018183,2.607e-05,0.0,0 STARLINK-3333,1 50805U 22001C   24199.68268233  .00002607  00000-0  18183-3 0  9995,2 50805  53.2180 332.6539 0001227  88.2629 271.8503 15.08839747139963,6917.881,95.438,540.595,538.897,0.0
50805.0,STARLINK-3333,PAYLOAD,2024-07-18 13:03:05,15.08836291,0.0001264,53.2184,328.7905,75.0136,285.0996,0.00015507,2.181e-05,0.0,0 STARLINK-3333,1 50805U 22001C   24200.54380880  .00002181  00000-0  15507-3 0  9990,2 50805  53.2184 328.7905 0001264  75.0136 285.0996 15.08836291141369,6917.892,95.438,540.631,538.882,0.0
50805.0,STARLINK-3333,PAYLOAD,2024-07-18 14:38:28,15.08841119,0.0001298,53.218,328.4929,73.7497,286.3638,6.9287e-05,8.15e-06,0.0,0 STARLINK-3333,1 50805U 22001C   24200.61004659  .00000815  00000-0  69287-4 0  9992,2 50805  53.2180 328.4929 0001298  73.7497 286.3638 15.08841119140103,6917.877,95.437,540.64,538.844,0.0
50805.0,STARLINK-3333,PAYLOAD,2024-07-18 16:13:51,15.08843343,0.0001324,53.2183,328.1954,74.3805,285.7333,0.00010645,1.407e-05,0.0,0 STARLINK-3333,1 50805U 22001C   24200.67628545  .00001407  00000-0  10645-3 0  9995,2 50805  53.2183 328.1954 0001324  74.3805 285.7333 15.08843343140118,6917.87,95.437,540.651,538.819,0.0
50805.0,STARLINK-3333,PAYLOAD,2024-07-19 14:29:15,15.08829263,0.0001184,53.2189,324.0301,104.9057,255.2067,-2.2415e-06,-3.23e-06,0.0,0 STARLINK-3333,1 50805U 22001C   24201.60365560 -.00000323  00000-0 -22415-5 0  9992,2 50805  53.2189 324.0301 0001184 104.9057 255.2067 15.08829263140254,6917.913,95.438,540.597,538.959,0.0
50805.0,STARLINK-3333,PAYLOAD,2024-07-20 12:44:39,15.08845642,0.0001135,53.218,319.8767,40.8732,319.2346,0.00033111,4.986e-05,0.0,0 STARLINK-3333,1 50805U 22001C   24202.53101339  .00004986  00000-0  33111-3 0  9997,2 50805  53.2180 319.8767 0001135  40.8732 319.2346 15.08845642141663,6917.863,95.437,540.513,538.943,0.0
50805.0,STARLINK-3333,PAYLOAD,2024-07-20 14:20:02,15.08855444,0.0001225,53.2176,319.5738,88.6609,271.4523,0.00037103,5.624e-05,0.0,0 STARLINK-3333,1 50805U 22001C   24202.59724747  .00005624  00000-0  37103-3 0  9992,2 50805  53.2176 319.5738 0001225  88.6609 271.4523 15.08855444140404,6917.833,95.437,540.546,538.851,0.0
50805.0,STARLINK-3333,PAYLOAD,2024-07-21 01:27:43,15.08867949,0.0001108,53.2189,317.4905,99.7207,260.391,0.00052557,8.093e-05,0.0,0 STARLINK-3333,1 50805U 22001C   24203.06091552  .00008093  00000-0  52557-3 0  9999,2 50805  53.2189 317.4905 0001108  99.7207 260.3910 15.08867949141746,6917.795,95.436,540.426,538.893,0.0
50805.0,STARLINK-3333,PAYLOAD,2024-07-21 12:35:26,15.08830034,0.0001565,53.2185,315.4101,109.5391,250.577,8.5434e-05,1.072e-05,0.0,0 STARLINK-3333,1 50805U 22001C   24203.52461572  .00001072  00000-0  85434-4 0  9994,2 50805  53.2185 315.4101 0001565 109.5391 250.5770 15.08830034141817,6917.911,95.438,540.859,538.693,0.0
50805.0,STARLINK-3333,PAYLOAD,2024-07-22 07:40:03,15.08845051,0.0001985,53.2184,311.8405,113.498,246.6221,-6.8226e-05,-1.374e-05,0.0,0 STARLINK-3333,1 50805U 22001C   24204.31948858 -.00001374  00000-0 -68226-4 0  9996,2 50805  53.2184 311.8405 0001985 113.4980 246.6221 15.08845051141932,6917.865,95.437,541.103,538.357,0.0
50805.0,STARLINK-3333,PAYLOAD,2024-07-22 17:12:22,15.08846389,0.0001761,53.2186,310.0564,117.5723,242.5448,-3.3912e-05,-8.28e-06,0.0,0 STARLINK-3333,1 50805U 22001C   24204.71692726 -.00000828  00000-0 -33912-4 0  9997,2 50805  53.2186 310.0564 0001761 117.5723 242.5448 15.08846389140720,6917.861,95.437,540.944,538.508,0.0
50805.0,STARLINK-3333,PAYLOAD,2024-07-23 13:52:23,15.08847587,0.0001545,53.218,306.1926,83.683,276.4338,0.00031712,4.764e-05,0.0,0 STARLINK-3333,1 50805U 22001C   24205.57804975  .00004764  00000-0  31712-3 0  9999,2 50805  53.2180 306.1926 0001545  83.6830 276.4338 15.08847587142125,6917.857,95.437,540.791,538.653,0.0
50805.0,STARLINK-3333,PAYLOAD,2024-07-24 10:32:24,15.08841872,0.0001629,53.2181,302.3303,95.9569,264.1609,7.1088e-05,8.44e-06,0.0,0 STARLINK-3333,1 50805U 22001C   24206.43917044  .00000844  00000-0  71088-4 0  9993,2 50805  53.2181 302.3303 0001629  95.9569 264.1609 15.08841872142251,6917.875,95.437,540.867,538.613,0.0
50805.0,STARLINK-3333,PAYLOAD,2024-07-25 05:37:02,15.08838962,0.0001645,53.2179,298.7616,94.8529,265.2651,3.1698e-05,2.16e-06,0.0,0 STARLINK-3333,1 50805U 22001C   24207.23405225  .00000216  00000-0  31698-4 0  9991,2 50805  53.2179 298.7616 0001645  94.8529 265.2651 15.08838962141103,6917.884,95.438,540.887,538.611,0.0
50805.0,STARLINK-3333,PAYLOAD,2024-07-25 10:23:11,15.08836335,0.0001654,53.2182,297.8697,94.7835,265.3346,8.1228e-06,-1.59e-06,0.0,0 STARLINK-3333,1 50805U 22001C   24207.43277422 -.00000159  00000-0  81228-5 0  9991,2 50805  53.2182 297.8697 0001654  94.7835 265.3346 15.08836335142403,6917.892,95.438,540.901,538.612,0.0
50805.0,STARLINK-3333,PAYLOAD,2024-07-25 23:06:16,15.08845598,0.0001684,53.2167,295.4877,84.2036,275.9148,0.0002398,3.531e-05,0.0,0 STARLINK-3333,1 50805U 22001C   24207.96269162  .00003531  00000-0  23980-3 0  9996,2 50805  53.2167 295.4877 0001684  84.2036 275.9148 15.08845598142486,6917.863,95.437,540.893,538.563,0.0
50805.0,STARLINK-3333,PAYLOAD,2024-07-26 10:13:58,15.08839536,0.000184,53.2172,293.4047,85.9796,274.1407,0.00019095,2.752e-05,0.0,0 STARLINK-3333,1 50805U 22001C   24208.42637540  .00002752  00000-0  19095-3 0  9993,2 50805  53.2172 293.4047 0001840  85.9796 274.1407 15.08839536142556,6917.882,95.438,541.02,538.474,0.0
50805.0,STARLINK-3333,PAYLOAD,2024-07-26 13:24:46,15.08821414,0.0002283,53.2159,292.811,89.4864,270.639,0.00082432,0.00012849,0.0,0 STARLINK-3333,1 50805U 22001C   24208.55886636  .00012849  00000-0  82432-3 0  9992,2 50805  53.2159 292.8110 0002283  89.4864 270.6390 15.08821414141302,6917.937,95.439,541.382,538.223,0.0
50805.0,STARLINK-3333,PAYLOAD,2024-07-26 15:00:07,15.08845052,0.0001977,53.215,292.5107,87.5242,272.5976,0.00020858,3.033e-05,0.0,0 STARLINK-3333,1 50805U 22001C   24208.62509233  .00003033  00000-0  20858-3 0  9994,2 50805  53.2150 292.5107 0001977  87.5242 272.5976 15.08845052141310,6917.865,95.437,541.098,538.362,0.0
50805.0,STARLINK-3333,PAYLOAD,2024-07-27 10:04:45,15.08833369,0.0001262,53.2153,288.9411,101.4488,258.6646,0.00024644,3.636e-05,0.0,0 STARLINK-3333,1 50805U 22001C   24209.41997672  .00003636  00000-0  24644-3 0  9996,2 50805  53.2153 288.9411 0001262 101.4488 258.6646 15.08833369142706,6917.901,95.438,540.639,538.893,0.0
50805.0,STARLINK-3333,PAYLOAD,2024-07-27 14:50:55,15.08838518,9.13e-05,53.2175,288.052,105.8607,254.2486,-2.9862e-06,-3.35e-06,0.0,0 STARLINK-3333,1 50805U 22001C   24209.61869396 -.00000335  00000-0 -29862-5 0  9993,2 50805  53.2175 288.0520 0000913 105.8607 254.2486 15.08838518141462,6917.885,95.438,540.382,539.118,0.0
50805.0,STARLINK-3333,PAYLOAD,2024-07-28 11:30:56,15.08842468,9.37e-05,53.2177,284.1875,88.3312,271.7787,0.00021652,3.16e-05,0.0,0 STARLINK-3333,1 50805U 22001C   24210.47981540  .00003160  00000-0  21652-3 0  9999,2 50805  53.2177 284.1875 0000937  88.3312 271.7787 15.08842468142860,6917.873,95.437,540.386,539.09,0.0
50805.0,STARLINK-3333,PAYLOAD,2024-07-28 16:17:05,15.08850945,0.0001176,53.2159,283.2961,85.9617,274.151,0.00045925,7.031e-05,0.0,0 STARLINK-3333,1 50805U 22001C   24210.67853309  .00007031  00000-0  45925-3 0  9992,2 50805  53.2159 283.2961 0001176  85.9617 274.1510 15.08850945141626,6917.847,95.437,540.525,538.898,0.0
50805.0,STARLINK-3333,PAYLOAD,2024-07-29 11:21:43,15.08842219,0.0001207,53.2184,279.7267,90.5309,269.5822,0.00019052,2.746e-05,0.0,0 STARLINK-3333,1 50805U 22001C   24211.47341549  .00002746  00000-0  19052-3 0  9999,2 50805  53.2184 279.7267 0001207  90.5309 269.5822 15.08842219143012,6917.874,95.437,540.574,538.904,0.0
50805.0,STARLINK-3333,PAYLOAD,2024-07-29 16:07:52,15.08843982,0.0001179,53.2176,278.8341,96.0679,264.0448,0.00021114,3.074e-05,0.0,0 STARLINK-3333,1 50805U 22001C   24211.67213369  .00003074  00000-0  21114-3 0  9996,2 50805  53.2176 278.8341 0001179  96.0679 264.0448 15.08843982141778,6917.868,95.437,540.549,538.918,0.0
